IRIDIUM 33              
1 24946U 97051C   15166.31780942  .00000278  00000-0  93818-4 0  9990
2 24946  86.3893 233.4017 0010124 106.9487 296.7991 14.33386420929059
IRIDIUM 33 DEB          
1 33772U 97051K   15167.76753604  .00027300  00000-0  53451-2 0  9994
2 33772  86.4150 245.7182 0039555 124.1792 356.7638 14.62177096331682
IRIDIUM 33 DEB          
1 33773U 97051L   15167.74658597  .00000892  00000-0  29078-3 0  9994
2 33773  86.4042 232.3865 0012979 142.6215 217.5888 14.37585070332408
IRIDIUM 33 DEB          
1 33775U 97051N   15167.73900662  .00000577  00000-0  19880-3 0  9998
2 33775  86.3701 228.8834 0018053 102.7653  21.6113 14.34132329331551
IRIDIUM 33 DEB          
1 33776U 97051P   15167.77026733  .00000321  00000-0  10933-3 0  9998
2 33776  86.4077 239.4281 0017495 107.3517  32.0887 14.33273936331500
IRIDIUM 33 DEB          
1 33777U 97051Q   15167.72794221  .00000901  00000-0  27977-3 0  9998
2 33777  86.3873 227.2016 0003138  10.3582 349.7681 14.40029829332520
IRIDIUM 33 DEB          
1 33849U 97051S   15166.13221065  .00011804  00000-0  38173-2 0  9996
2 33849  86.1150 185.9632 0073770 308.3796  51.0789 14.37432273327945
IRIDIUM 33 DEB          
1 33850U 97051T   15166.19570177  .00001350  00000-0  46877-3 0  9991
2 33850  86.3470 222.3250 0014003 112.8354 304.0754 14.34815585331124
IRIDIUM 33 DEB          
1 33853U 97051W   15167.82651733  .00000972  00000-0  63322-3 0  9996
2 33853  86.0065 208.0274 0236233 329.9141  78.4308 13.88878666320567
IRIDIUM 33 DEB          
1 33854U 97051X   15166.34260598  .00008263  00000-0  17511-2 0  9997
2 33854  86.2290 171.4005 0019228 105.5474 319.8241 14.58995143334016
IRIDIUM 33 DEB          
1 33855U 97051Y   15166.34497202  .00044189  00000-0  13591-1 0  9992
2 33855  86.3881 279.1002 0135952 112.2497 249.3184 14.36078877323901
IRIDIUM 33 DEB          
1 33858U 97051AB  15167.51225977  .00030866  00000-0  46279-2 0  9990
2 33858  86.1443 146.0077 0039530  38.9778 100.0852 14.73927176334476
IRIDIUM 33 DEB          
1 33859U 97051AC  15167.72455611  .00006256  00000-0  20689-2 0  9997
2 33859  86.3462 227.8993 0046152 145.8041 359.9826 14.37234897330512
IRIDIUM 33 DEB          
1 33860U 97051AD  15166.36679663  .00002839  00000-0  84721-3 0  9994
2 33860  86.3964 227.6155 0017194 138.9590 315.0702 14.42636816332516
IRIDIUM 33 DEB          
1 33862U 97051AF  15167.73254382  .00000831  00000-0  23413-3 0  9996
2 33862  86.4180 231.4343 0048392 280.5456 201.5273 14.44030167333141
IRIDIUM 33 DEB          
1 33864U 97051AH  15167.85353160  .00002541  00000-0  70348-3 0  9994
2 33864  86.2812 197.0073 0010177  20.8280 100.7850 14.46303852332708
IRIDIUM 33 DEB          
1 33865U 97051AJ  15167.61776995  .00009862  00000-0  22083-2 0  9999
2 33865  86.3529 215.9753 0048559 103.7524  55.3621 14.55839455332925
IRIDIUM 33 DEB          
1 33866U 97051AK  15167.71430897  .00001047  00000-0  52300-3 0  9992
2 33866  86.3053 247.5434 0128040  37.2196 115.8088 14.11719413326032
IRIDIUM 33 DEB          
1 33867U 97051AL  15167.74701923  .00003030  00000-0  72473-3 0  9994
2 33867  86.4196 223.2532 0033191 150.3750 209.9346 14.52977915334474
IRIDIUM 33 DEB          
1 33868U 97051AM  15166.29195385  .00041444  00000-0  42514-2 0  9996
2 33868  86.3185 191.2870 0006496 163.1356 320.3548 14.90220675335607
IRIDIUM 33 DEB          
1 33869U 97051AN  15166.31611711  .00006983  00000-0  24232-2 0  9992
2 33869  86.3702 250.8127 0085164 250.0721 109.1285 14.33433760328365
IRIDIUM 33 DEB          
1 33870U 97051AP  15167.75698089  .00001306  00000-0  46091-3 0  9998
2 33870  86.3819 234.5672 0025909 130.8070   8.6934 14.33836829331184
IRIDIUM 33 DEB          
1 33872U 97051AR  15166.31561873  .00035702  00000-0  39388-2 0  9998
2 33872  86.3204 188.8234 0014872  78.4132  49.5756 14.87235511335632
IRIDIUM 33 DEB          
1 33873U 97051AS  15166.19784691  .00007403  00000-0  18049-2 0  9998
2 33873  86.3723 217.9316 0025763 133.8069 285.7094 14.52385903332752
IRIDIUM 33 DEB          
1 33874U 97051AT  15166.35873756  .00005117  00000-0  19966-2 0  9997
2 33874  86.2917 231.3397 0082151 288.0906 163.3789 14.27669458328044
IRIDIUM 33 DEB          
1 33875U 97051AU  15167.61128184  .00006788  00000-0  12809-2 0  9990
2 33875  86.4121 211.9575 0038631  70.7331  90.8908 14.63870514335860
IRIDIUM 33 DEB          
1 33876U 97051AV  15166.21215506  .00020061  00000-0  36600-2 0  9996
2 33876  86.1997 173.1174 0030216  84.8570  42.5450 14.65592518333327
IRIDIUM 33 DEB          
1 33878U 97051AX  15167.72806618  .00008152  00000-0  28081-2 0  9996
2 33878  86.3179 242.3590 0103804 290.9506 196.7737 14.32837885327952
IRIDIUM 33 DEB          
1 33879U 97051AY  15166.34423307  .00013447  00000-0  27393-2 0  9992
2 33879  86.3652 211.0334 0016830 112.7896 247.5095 14.60844703 82423
IRIDIUM 33 DEB          
1 33881U 97051BA  15166.33004459  .00002490  00000-0  10845-2 0  9997
2 33881  86.3835 261.4862 0092825 329.1275  94.4459 14.21395878327265
IRIDIUM 33 DEB          
1 33882U 97051BB  15166.28883006  .00057091  00000-0  46085-2 0  9997
2 33882  86.2931 174.2683 0034876  62.4158  67.0027 14.99111761336723
IRIDIUM 33 DEB          
1 33883U 97051BC  15166.36247511  .00073081  00000-0  34752-2 0  9997
2 33883  86.1877 144.7319 0024711  38.4979 321.8020 15.18611401335766
IRIDIUM 33 DEB          
1 33884U 97051BD  15166.35126208  .00003439  00000-0  99457-3 0  9990
2 33884  86.3845 223.9367 0004821 279.3593 172.9330 14.44313929332606
IRIDIUM 33 DEB          
1 33886U 97051BF  15166.29703986  .00000417  00000-0  14523-3 0  9993
2 33886  86.3860 233.7939 0016224 135.0006 293.1270 14.32946397331231
IRIDIUM 33 DEB          
1 33887U 97051BG  15167.67368576  .00000342  00000-0  11381-3 0  9995
2 33887  86.3064 208.6553 0008084 137.1778   1.4043 14.34684421331894
IRIDIUM 33 DEB          
1 33888U 97051BH  15166.24800724  .00007088  00000-0  24079-2 0  9995
2 33888  86.3261 228.5677 0059052 188.6369 171.3818 14.35532324329709
IRIDIUM 33 DEB          
1 33950U 97051BK  15166.38698263  .00008339  00000-0  20253-2 0  9993
2 33950  86.3865 227.2227 0021002  61.9888  60.9164 14.52645456332272
IRIDIUM 33 DEB          
1 33951U 97051BL  15167.73143042  .00040888  00000-0  52431-2 0  9992
2 33951  86.4305 239.2676 0004370 101.5169  15.7132 14.81058757333241
IRIDIUM 33 DEB          
1 33952U 97051BM  15166.10654590  .00007229  00000-0  18275-2 0  9998
2 33952  86.3559 216.4876 0018978 111.7580 281.1006 14.50769308332661
IRIDIUM 33 DEB          
1 33953U 97051BN  15166.22265859  .00002198  00000-0  73439-3 0  9992
2 33953  86.3954 236.2687 0026581 137.7684 275.9275 14.36869614331374
IRIDIUM 33 DEB          
1 33954U 97051BP  15166.39174176  .00009710  00000-0  24930-2 0  9990
2 33954  86.3867 233.7859 0024058  88.0136   5.9801 14.49985265331492
IRIDIUM 33 DEB          
1 33955U 97051BQ  15166.24402847  .00014657  00000-0  35082-2 0  9990
2 33955  86.3679 236.7072 0045813 131.4398 229.0758 14.52824337330663
IRIDIUM 33 DEB          
1 33956U 97051BR  15167.67849551  .00018793  00000-0  39901-2 0  9995
2 33956  86.4246 242.5911 0008019  75.9419  75.9370 14.59005841331987
IRIDIUM 33 DEB          
1 33959U 97051BU  15167.69940523  .00008895  00000-0  34350-2 0  9996
2 33959  86.3584 248.0861 0083371 256.9839 256.4996 14.28185143328245
IRIDIUM 33 DEB          
1 33960U 97051BV  15167.77147744  .00003619  00000-0  10461-2 0  9997
2 33960  86.2770 194.8372 0002477 325.3082  86.7709 14.44344961332779
IRIDIUM 33 DEB          
1 33961U 97051BW  15166.15017212  .00012144  00000-0  27774-2 0  9993
2 33961  86.2755 197.5058 0036348 112.1568 313.8164 14.55188066332491
IRIDIUM 33 DEB          
1 33962U 97051BX  15166.14583384  .00012650  00000-0  29701-2 0  9995
2 33962  86.3549 217.4206 0011777  89.0612 322.7883 14.54336936332680
IRIDIUM 33 DEB          
1 33964U 97051BZ  15166.29844012  .00030901  00000-0  39398-2 0  9993
2 33964  86.3361 199.1948 0019778 168.3236 315.8060 14.81219572334740
IRIDIUM 33 DEB          
1 33965U 97051CA  15167.67711692  .00004828  00000-0  13289-2 0  9994
2 33965  86.3736 222.7577 0013044  80.7893  41.3630 14.46722745332603
IRIDIUM 33 DEB          
1 33966U 97051CB  15167.67641839  .00001019  00000-0  32020-3 0  9994
2 33966  86.3972 228.7449 0005640 266.6317 219.5880 14.39578733332401
IRIDIUM 33 DEB          
1 33967U 97051CC  15167.66188972  .00006699  00000-0  15782-2 0  9992
2 33967  86.3926 225.0634 0035420  78.5772  43.4920 14.53795391333059
IRIDIUM 33 DEB          
1 34071U 97051CE  15166.23102774  .00001265  00000-0  41001-3 0  9995
2 34071  86.3509 219.5138 0010035 132.8740 227.3302 14.38233616331251
IRIDIUM 33 DEB          
1 34073U 97051CG  15167.65870170  .00186147  00000-0  84826-2 0  9990
2 34073  86.3648 213.3108 0011803 193.5465 293.9224 15.19781523334292
IRIDIUM 33 DEB          
1 34075U 97051CJ  15166.35323446  .00052201  00000-0  62937-2 0  9999
2 34075  86.4422 246.5232 0025896  79.0779  11.6452 14.83336854332798
IRIDIUM 33 DEB          
1 34076U 97051CK  15166.12670708  .00022486  00000-0  35048-2 0  9996
2 34076  86.3344 191.9310 0051992  63.7897   1.8562 14.71901566334945
IRIDIUM 33 DEB          
1 34077U 97051CL  15166.34058316  .00002688  00000-0  89515-3 0  9997
2 34077  86.3979 238.2351 0023154 105.7122 342.2669 14.37153319330399
IRIDIUM 33 DEB          
1 34079U 97051CN  15166.35935391  .00002988  00000-0  83452-3 0  9994
2 34079  86.3935 225.0092 0007613 230.9185 221.8801 14.45939350332973
IRIDIUM 33 DEB          
1 34081U 97051CQ  15166.29875738  .00024871  00000-0  31877-2 0  9996
2 34081  86.3096 186.7386 0046284 131.0781 356.9663 14.80399031335382
IRIDIUM 33 DEB          
1 34082U 97051CR  15167.80135660  .00014154  00000-0  43016-2 0  9999
2 34082  86.3732 274.3723 0165761  73.7504  46.1184 14.34363164325951
IRIDIUM 33 DEB          
1 34086U 97051CV  15166.38573152  .00006020  00000-0  19442-2 0  9996
2 34086  86.3903 240.8683 0036217 132.0916 358.1543 14.38638989330390
